[{"OBJECT_NAME":"STARLINK-2367","OBJECT_ID":"2021-021AZ","EPOCH":"2026-03-10T00:00:02.999808","MEAN_MOTION":15.26413588,"ECCENTRICITY":0.00010158,"INCLINATION":53.1415,"RA_OF_ASC_NODE":279.3039,"ARG_OF_PERICENTER":61.5725,"MEAN_ANOMALY":286.6174,"EPHEMERIS_TYPE":0,"CLASSIFICATION_TYPE":"U","NORAD_CAT_ID":47907,"ELEMENT_SET_NO":999,"REV_AT_EPOCH":579,"BSTAR":0.036483636,"MEAN_MOTION_DOT":0.01050812,"MEAN_MOTION_DDOT":0},{"OBJECT_NAME":"YAOGAN-35 03C","OBJECT_ID":"2022-088E","EPOCH":"2026-03-09T11:20:59.130240","MEAN_MOTION":15.39002434,"ECCENTRICITY":0.00029739,"INCLINATION":34.9967,"RA_OF_ASC_NODE":77.5598,"ARG_OF_PERICENTER":203.8466,"MEAN_ANOMALY":156.2116,"EPHEMERIS_TYPE":0,"CLASSIFICATION_TYPE":"U","NORAD_CAT_ID":53320,"ELEMENT_SET_NO":999,"REV_AT_EPOCH":20153,"BSTAR":0.00082360226,"MEAN_MOTION_DOT":0.00032803,"MEAN_MOTION_DDOT":0}]
